M2 PATHFINDER           
1 45727U 20037E   26068.47969609  .00004468  00000+0  32592-3 0  9994
2 45727  97.8158 258.5983 0012405 127.8041 232.4310 15.04175941310501
STARLINK-3677           
1 51970U 22025Q   26068.29984043 -.00000007  00000+0  18441-4 0  9993
2 51970  53.0566  32.6524 0001537  85.1631 274.9533 15.06401696220860
